SCD 1                   
1 22490U 93009B   26187.09066529  .00000449  00000+0  71913-4 0  9990
2 22490  24.9695  90.8561 0041744 338.3535 172.5130 14.46126471763857
TECHSAT 1B (GO-32)      
1 25397U 98043D   26186.95973366  .00000066  00000+0  48536-4 0  9992
2 25397  99.0076 180.1925 0001896 129.5946 230.5400 14.24432127454002
SCD 2                   
1 25504U 98060A   26186.45911605  .00000437  00000+0  71151-4 0  9995
2 25504  24.9963 319.4792 0016613 316.9308  95.0772 14.45532986462978
DLR-TUBSAT              
1 25757U 99029B   26186.96265966  .00000108  00000+0  38332-4 0  9998
2 25757  98.6703 183.0851 0013093 295.3315  64.6523 14.52431833435979
TERRA                   
1 25994U 99068A   26187.26175208  .00000407  00000+0  91760-4 0  9993
2 25994  97.9445 236.0508 0002973 140.6672 284.5270 14.61118907412395
MAROC-TUBSAT            
1 27004U 01056D   26187.07123708 -.00000026  00000+0  23640-4 0  9994
2 27004  99.8093   4.2874 0020631  94.5422  25.1626 13.70263203228771
AQUA                    
1 27424U 02022A   26187.22725197  .00000835  00000+0  17563-3 0  9994
2 27424  98.4287 156.8918 0000717  94.7604  30.4360 14.62188099286057
SHIYAN-1 (SY-1)         
1 28220U 04012A   26187.16577939  .00015291  00000+0  46274-3 0  9995
2 28220  97.8679 266.4731 0004202 317.7476  42.3441 15.34287357214004
AURA                    
1 28376U 04026A   26187.15790723  .00000857  00000+0  18320-3 0  9992
2 28376  98.3425 143.7693 0001208  89.1365 270.9974 14.61358777168984
IRS-P5 (CARTOSAT-1)     
1 28649U 05017A   26187.06970705  .00001666  00000+0  17342-3 0  9998
2 28649  97.5303 209.2774 0001896  58.4130 301.7274 14.91101556146631
SINAH 1                 
1 28893U 05043D   26187.25742099  .00000388  00000+0  83107-4 0  9995
2 28893  98.2884 321.6941 0013773 212.1250 147.9114 14.64171461103311
RESURS-DK 1             
1 29228U 06021A   26186.60993567  .00002417  00000+0  14148-3 0  9994
2 29228  69.9334 291.8628 0006708 281.9377  78.1037 15.13295235105360
ARIRANG-2 (KOMPSAT-2)   
1 29268U 06031A   26187.29269788  .00000149  00000+0  36437-4 0  9992
2 29268  97.8313  10.8147 0015031  18.5325  84.6477 14.64671350 64277
LAPAN-TUBSAT            
1 29709U 07001A   26187.24356229  .00000935  00000+0  11351-3 0  9992
2 29709  98.1351 186.8981 0013405 119.9445 240.3103 14.85972864 53985
HAIYANG-1B              
1 31113U 07010A   26186.88339419  .00000104  00000+0  55322-4 0  9990
2 31113  98.3506 168.0043 0014230 141.6275 218.5924 14.31031671  3315
COSMO-SKYMED 1          
1 31598U 07023A   26187.24983498  .00002074  00000+0  18454-3 0  9996
2 31598  97.8851  19.2669 0001051  86.3050 273.8292 14.97192938 32649
TERRASAR-X              
1 31698U 07026A   26186.50311138  .00000558  00000+0  29782-4 0  9996
2 31698  97.4451 193.9490 0001828  87.3608 272.7836 15.19151661 56007
WORLDVIEW-1 (WV-1)      
1 32060U 07041A   26187.26290092  .00006157  00000+0  25340-3 0  9992
2 32060  97.3893 306.7370 0000931 269.3858  90.7273 15.24490855 45787
YAOGAN-3                
1 32289U 07055A   26187.32329670  .00003254  00000+0  33592-3 0  9995
2 32289  97.8146 217.0122 0001772  77.5810 282.5606 14.90863921  8720
COSMO-SKYMED 2          
1 32376U 07059A   26187.26650721  .00000364  00000+0  52262-4 0  9998
2 32376  97.8891  10.5880 0001352  91.5148 268.6220 14.82161483  4835
RADARSAT-2              
1 32382U 07061A   26187.27980218  .00000330  00000+0  14473-3 0  9990
2 32382  98.5780 193.9397 0001314  84.4267 275.7065 14.29982596968682
CARTOSAT-2A             
1 32783U 08021A   26187.32477516  .00001185  00000+0  16588-3 0  9998
2 32783  97.7617 235.3798 0013075  53.7282 306.5136 14.79270618981638
HUANJING 1A (HJ-1A)     
1 33320U 08041A   26187.24804454  .00002285  00000+0  27938-3 0  9997
2 33320  97.6694 172.3504 0020643  76.7948 283.5569 14.84036501961233
HUANJING 1B (HJ-1B)     
1 33321U 08041B   26187.29330264  .00001307  00000+0  16384-3 0  9993
2 33321  97.6531 175.5080 0037617 119.2258 241.2727 14.83354756961246
GEOEYE 1                
1 33331U 08042A   26187.28012214  .00000484  00000+0  10002-3 0  9992
2 33331  98.1330 260.9802 0004608  15.3600 344.7742 14.64644419952942
THEOS                   
1 33396U 08049A   26187.27373384  .00000342  00000+0  18030-3 0  9999
2 33396  98.5556 243.9372 0001129  87.1755 272.9551 14.20137197920670
COSMO-SKYMED 3          
1 33412U 08054A   26187.26584034  .00001890  00000+0  13012-3 0  9993
2 33412  97.8265  46.1518 0014957 195.7688 164.3075 15.07078914959817
YAOGAN-4                
1 33446U 08061A   26186.78662879  .00001364  00000+0  17321-3 0  9991
2 33446  97.9306 120.1601 0014665  16.1626 344.0052 14.83239848948426
GOSAT (IBUKI)           
1 33492U 09002A   26187.29754539  .00000141  00000+0  33339-4 0  9990
2 33492  98.0909 298.1411 0001175  81.1676 278.9662 14.67538018934264
DEIMOS-1                
1 35681U 09041A   26187.31346419  .00000448  00000+0  73310-4 0  9995
2 35681  97.7429 343.7138 0002559 103.8338 256.3157 14.75257286909700
