OBJECT_NAME,OBJECT_ID,EPOCH,MEAN_MOTION,ECCENTRICITY,INCLINATION,RA_OF_ASC_NODE,ARG_OF_PERICENTER,MEAN_ANOMALY,EPHEMERIS_TYPE,CLASSIFICATION_TYPE,NORAD_CAT_ID,ELEMENT_SET_NO,REV_AT_EPOCH,BSTAR,MEAN_MOTION_DOT,MEAN_MOTION_DDOT
SCD 1,1993-009B,2026-07-06T02:10:33.481056,14.46126471,.00417443,24.9695,90.8561,338.3535,172.5130,0,U,22490,999,76385,.71913407E-4,.449E-5,0
TECHSAT 1B (GO-32),1998-043D,2026-07-05T23:02:00.988224,14.24432127,.00018961,99.0076,180.1925,129.5946,230.5400,0,U,25397,999,45400,.48535587E-4,.66E-6,0
SCD 2,1998-060A,2026-07-05T11:01:07.626720,14.45532986,.0016613,24.9963,319.4792,316.9308,95.0772,0,U,25504,999,46297,.71151E-4,.437E-5,0
DLR-TUBSAT,1999-029B,2026-07-05T23:06:13.794624,14.52431833,.00130931,98.6703,183.0851,295.3315,64.6523,0,U,25757,999,43597,.38331662E-4,.108E-5,0
TERRA,1999-068A,2026-07-06T06:16:55.379712,14.61118907,.00029739,97.9445,236.0508,140.6672,284.5270,0,U,25994,999,41239,.91760031E-4,.407E-5,0
MAROC-TUBSAT,2001-056D,2026-07-06T01:42:34.883712,13.70263203,.00206319,99.8093,4.2874,94.5422,25.1626,0,U,27004,999,22877,.23639755E-4,-.26E-6,0
AQUA,2002-022A,2026-07-06T05:27:14.570208,14.62188099,.0000717,98.4287,156.8918,94.7604,30.4360,0,U,27424,999,28605,.1756285E-3,.835E-5,0
SHIYAN-1 (SY-1),2004-012A,2026-07-06T03:58:43.339296,15.34287357,.00042023,97.8679,266.4731,317.7476,42.3441,0,U,28220,999,21400,.46274266E-3,.15291E-3,0
AURA,2004-026A,2026-07-06T03:47:23.184672,14.61358777,.00012085,98.3425,143.7693,89.1365,270.9974,0,U,28376,999,16898,.18319898E-3,.857E-5,0
IRS-P5 (CARTOSAT-1),2005-017A,2026-07-06T01:40:22.689120,14.91101556,.0001896,97.5303,209.2774,58.4130,301.7274,0,U,28649,999,14663,.17342421E-3,.1666E-4,0
SINAH 1,2005-043D,2026-07-06T06:10:41.173536,14.64171461,.00137731,98.2884,321.6941,212.1250,147.9114,0,U,28893,999,10331,.83107311E-4,.388E-5,0
RESURS-DK 1,2006-021A,2026-07-05T14:38:18.441888,15.13295235,.00067081,69.9334,291.8628,281.9377,78.1037,0,U,29228,999,10536,.14148269E-3,.2417E-4,0
ARIRANG-2 (KOMPSAT-2),2006-031A,2026-07-06T07:01:29.096832,14.64671350,.00150314,97.8313,10.8147,18.5325,84.6477,0,U,29268,999,6427,.36437119E-4,.149E-5,0
LAPAN-TUBSAT,2007-001A,2026-07-06T05:50:43.781856,14.85972864,.0013405,98.1351,186.8981,119.9445,240.3103,0,U,29709,999,5398,.11351088E-3,.935E-5,0
HAIYANG-1B,2007-010A,2026-07-05T21:12:05.258016,14.31031671,.00142301,98.3506,168.0043,141.6275,218.5924,0,U,31113,999,331,.55321735E-4,.104E-5,0
COSMO-SKYMED 1,2007-023A,2026-07-06T05:59:45.742272,14.97192938,.0001051,97.8851,19.2669,86.3050,273.8292,0,U,31598,999,3264,.18454144E-3,.2074E-4,0
TERRASAR-X,2007-026A,2026-07-05T12:04:28.823232,15.19151661,.0001828,97.4451,193.9490,87.3608,272.7836,0,U,31698,999,5600,.29782E-4,.558E-5,0
WORLDVIEW-1 (WV-1),2007-041A,2026-07-06T06:18:34.639488,15.24490855,.00009311,97.3893,306.7370,269.3858,90.7273,0,U,32060,999,4578,.25339523E-3,.6157E-4,0
YAOGAN-3,2007-055A,2026-07-06T07:45:32.834880,14.90863921,.00017726,97.8146,217.0122,77.5810,282.5606,0,U,32289,999,872,.335919E-3,.3254E-4,0
COSMO-SKYMED 2,2007-059A,2026-07-06T06:23:46.222944,14.82161483,.00013523,97.8891,10.5880,91.5148,268.6220,0,U,32376,999,483,.52261992E-4,.364E-5,0
RADARSAT-2,2007-061A,2026-07-06T06:42:54.908352,14.29982596,.0001314,98.5780,193.9397,84.4267,275.7065,0,U,32382,999,96868,.14473314E-3,.33E-5,0
CARTOSAT-2A,2008-021A,2026-07-06T07:47:40.573824,14.79270618,.00130758,97.7617,235.3798,53.7282,306.5136,0,U,32783,999,98163,.16588101E-3,.1185E-4,0
HUANJING 1A (HJ-1A),2008-041A,2026-07-06T05:57:11.048256,14.84036501,.00206435,97.6694,172.3504,76.7948,283.5569,0,U,33320,999,96123,.27938147E-3,.2285E-4,0
HUANJING 1B (HJ-1B),2008-041B,2026-07-06T07:02:21.348096,14.83354756,.00376178,97.6531,175.5080,119.2258,241.2727,0,U,33321,999,96124,.16383652E-3,.1307E-4,0
GEOEYE 1,2008-042A,2026-07-06T06:43:22.552896,14.64644419,.00046087,98.1330,260.9802,15.3600,344.7742,0,U,33331,999,95294,.10002269E-3,.484E-5,0
THEOS,2008-049A,2026-07-06T06:34:10.603776,14.20137197,.00011294,98.5556,243.9372,87.1755,272.9551,0,U,33396,999,92067,.18029796E-3,.342E-5,0
COSMO-SKYMED 3,2008-054A,2026-07-06T06:22:48.605376,15.07078914,.00149579,97.8265,46.1518,195.7688,164.3075,0,U,33412,999,95981,.13012331E-3,.189E-4,0
YAOGAN-4,2008-061A,2026-07-05T18:52:44.727456,14.83239848,.0014665,97.9306,120.1601,16.1626,344.0052,0,U,33446,999,94842,.1732077E-3,.1364E-4,0
GOSAT (IBUKI),2009-002A,2026-07-06T07:08:27.921696,14.67538018,.00011752,98.0909,298.1411,81.1676,278.9662,0,U,33492,999,93426,.33339247E-4,.141E-5,0
DEIMOS-1,2009-041A,2026-07-06T07:31:23.306016,14.75257286,.0002559,97.7429,343.7138,103.8338,256.3157,0,U,35681,999,90970,.73309836E-4,.448E-5,0
